IRIDIUM 112             
1 41925U 17003J   24133.84265529  .00001144  00000+0  40136-3 0  9992
2 41925  86.3993  48.1395 0002559  84.6258 275.5230 14.34225872383607
IRIDIUM 111             
1 41926U 17003K   24133.27182573  .00000632  00000+0  21841-3 0  9990
2 41926  86.3995  48.4316 0002434  77.3675 282.7793 14.34223945383478
IRIDIUM 113             
1 42803U 17039A   24133.87970176  .00000596  00000+0  20560-3 0  9990
2 42803  86.3936 281.9468 0002245  88.5041 271.6412 14.34221537361499
IRIDIUM 123             
1 42804U 17039B   24133.57234240  .00000357  00000+0  12046-3 0  9998
2 42804  86.3934 313.5958 0002232  83.5997 276.5453 14.34220101360219
IRIDIUM 120             
1 42805U 17039C   24133.87336065  .00000346  00000+0  11659-3 0  9997
2 42805  86.3923 281.8312 0001983  92.6247 267.5176 14.34224771361489
IRIDIUM 115             
1 42806U 17039D   24133.49810741  .00001588  00000+0  46589-3 0  9993
2 42806  86.4462 282.0075 0002273  87.5133 272.6328 14.43288514363829
IRIDIUM 118             
1 42807U 17039E   24133.60406083  .00001446  00000+0  50914-3 0  9997
2 42807  86.3934 313.5835 0002379  94.3464 265.8003 14.34218557360211
IRIDIUM 117             
1 42808U 17039F   24133.62308525  .00000332  00000+0  11157-3 0  9991
2 42808  86.3933 313.5404 0002095  85.6916 274.4519 14.34219959360252
